{
  "type": "FeatureCollection",
  "features": [
    {
      "type": "Feature",
      "properties": {
        "norad_id": 66651,
        "name": "2025-274B",
        "group": "last-30-days",
        "lat": -28.951679072958797,
        "lon": -83.59516594819716,
        "alt_km": 596.1436784790321,
        "timestamp": "2025-12-10T20:49:51.345984+00:00",
        "meta_object_name": "2025-274B",
        "meta_object_id": "2025-274B",
        "meta_epoch": "2025-12-10T14:31:20.829216",
        "meta_mean_motion": 14.91770599,
        "meta_eccentricity": 0.00106989,
        "meta_inclination": 97.738,
        "meta_ra_of_asc_node": 271.8329,
        "meta_arg_of_pericenter": 258.7224,
        "meta_mean_anomaly": 101.2792,
        "meta_ephemeris_type": 0,
        "meta_classification_type": "U",
        "meta_norad_cat_id": 66651,
        "meta_element_set_no": 999,
        "meta_rev_at_epoch": 208,
        "meta_bstar": 0.00064311884,
        "meta_mean_motion_dot": 6.435e-05,
        "meta_mean_motion_ddot": 0,
        "tle_line1": "1 66651U 25274B   25344.60510219  .00006435  00000+0  64312-3 0  9992",
        "tle_line2": "2 66651  97.7380 271.8329 0010698 258.7224 101.2792 14.91770599  2080"
      },
      "geometry": {
        "type": "Point",
        "coordinates": [
          -83.59516594819716,
          -28.951679072958797
        ]
      }
    },
    {
      "type": "Feature",
      "properties": {
        "norad_id": 66652,
        "name": "2025-274C",
        "group": "last-30-days",
        "lat": -22.021553382186074,
        "lon": -84.75238289463057,
        "alt_km": 595.3448366647517,
        "timestamp": "2025-12-10T20:49:51.345994+00:00",
        "meta_object_name": "2025-274C",
        "meta_object_id": "2025-274C",
        "meta_epoch": "2025-12-10T12:52:54.651360",
        "meta_mean_motion": 14.91881512,
        "meta_eccentricity": 0.00103944,
        "meta_inclination": 97.7385,
        "meta_ra_of_asc_node": 271.7696,
        "meta_arg_of_pericenter": 265.9418,
        "meta_mean_anomaly": 94.0613,
        "meta_ephemeris_type": 0,
        "meta_classification_type": "U",
        "meta_norad_cat_id": 66652,
        "meta_element_set_no": 999,
        "meta_rev_at_epoch": 207,
        "meta_bstar": 0.00039337844,
        "meta_mean_motion_dot": 3.924e-05,
        "meta_mean_motion_ddot": 0,
        "tle_line1": "1 66652U 25274C   25344.53674365  .00003924  00000+0  39338-3 0  9998",
        "tle_line2": "2 66652  97.7385 271.7696 0010394 265.9418  94.0613 14.91881512  2078"
      },
      "geometry": {
        "type": "Point",
        "coordinates": [
          -84.75238289463057,
          -22.021553382186074
        ]
      }
    },
    {
      "type": "Feature",
      "properties": {
        "norad_id": 66653,
        "name": "2025-274D",
        "group": "last-30-days",
        "lat": -21.67884520632596,
        "lon": -84.80674212565862,
        "alt_km": 595.7091522257933,
        "timestamp": "2025-12-10T20:49:51.346004+00:00",
        "meta_object_name": "2025-274D",
        "meta_object_id": "2025-274D",
        "meta_epoch": "2025-12-10T14:29:24.119232",
        "meta_mean_motion": 14.91886694,
        "meta_eccentricity": 0.00112497,
        "meta_inclination": 97.7385,
        "meta_ra_of_asc_node": 271.8352,
        "meta_arg_of_pericenter": 261.6601,
        "meta_mean_anomaly": 98.3342,
        "meta_ephemeris_type": 0,
        "meta_classification_type": "U",
        "meta_norad_cat_id": 66653,
        "meta_element_set_no": 999,
        "meta_rev_at_epoch": 208,
        "meta_bstar": 0.00041311808,
        "meta_mean_motion_dot": 4.125e-05,
        "meta_mean_motion_ddot": 0,
        "tle_line1": "1 66653U 25274D   25344.60375138  .00004125  00000+0  41312-3 0  9992",
        "tle_line2": "2 66653  97.7385 271.8352 0011249 261.6601  98.3342 14.91886694  2089"
      },
      "geometry": {
        "type": "Point",
        "coordinates": [
          -84.80674212565862,
          -21.67884520632596
        ]
      }
    },
    {
      "type": "Feature",
      "properties": {
        "norad_id": 66654,
        "name": "JACK E",
        "group": "last-30-days",
        "lat": -13.254627711192258,
        "lon": -86.06562764463,
        "alt_km": 595.2569988504583,
        "timestamp": "2025-12-10T20:49:51.346016+00:00",
        "meta_object_name": "JACK E",
        "meta_object_id": "2025-274E",
        "meta_epoch": "2025-12-10T14:27:09.808704",
        "meta_mean_motion": 14.92062182,
        "meta_eccentricity": 0.0011838,
        "meta_inclination": 97.7386,
        "meta_ra_of_asc_node": 271.8378,
        "meta_arg_of_pericenter": 263.3593,
        "meta_mean_anomaly": 96.6279,
        "meta_ephemeris_type": 0,
        "meta_classification_type": "U",
        "meta_norad_cat_id": 66654,
        "meta_element_set_no": 999,
        "meta_rev_at_epoch": 208,
        "meta_bstar": 0.00044716292,
        "meta_mean_motion_dot": 4.49e-05,
        "meta_mean_motion_ddot": 0,
        "tle_line1": "1 66654U 25274E   25344.60219686  .00004490  00000+0  44716-3 0  9994",
        "tle_line2": "2 66654  97.7386 271.8378 0011838 263.3593  96.6279 14.92062182  2081"
      },
      "geometry": {
        "type": "Point",
        "coordinates": [
          -86.06562764463,
          -13.254627711192258
        ]
      }
    },
    {
      "type": "Feature",
      "properties": {
        "norad_id": 66655,
        "name": "2025-274F",
        "group": "last-30-days",
        "lat": -3.4650142900739005,
        "lon": -87.425593026472,
        "alt_km": 594.0354756870047,
        "timestamp": "2025-12-10T20:49:51.346028+00:00",
        "meta_object_name": "2025-274F",
        "meta_object_id": "2025-274F",
        "meta_epoch": "2025-12-10T14:24:20.624544",
        "meta_mean_motion": 14.91412978,
        "meta_eccentricity": 0.00046983,
        "meta_inclination": 97.7323,
        "meta_ra_of_asc_node": 271.8406,
        "meta_arg_of_pericenter": 22.2473,
        "meta_mean_anomaly": 337.8948,
        "meta_ephemeris_type": 0,
        "meta_classification_type": "U",
        "meta_norad_cat_id": 66655,
        "meta_element_set_no": 999,
        "meta_rev_at_epoch": 208,
        "meta_bstar": 1.9321348e-05,
        "meta_mean_motion_dot": 1.38e-06,
        "meta_mean_motion_ddot": 0,
        "tle_line1": "1 66655U 25274F   25344.60023871  .00000138  00000+0  19321-4 0  9994",
        "tle_line2": "2 66655  97.7323 271.8406 0004698  22.2473 337.8948 14.91412978  2084"
      },
      "geometry": {
        "type": "Point",
        "coordinates": [
          -87.425593026472,
          -3.4650142900739005
        ]
      }
    },
    {
      "type": "Feature",
      "properties": {
        "norad_id": 66656,
        "name": "2025-274G",
        "group": "last-30-days",
        "lat": -3.9996393822829033,
        "lon": -87.3528441856255,
        "alt_km": 594.7107032524791,
        "timestamp": "2025-12-10T20:49:51.346038+00:00",
        "meta_object_name": "2025-274G",
        "meta_object_id": "2025-274G",
        "meta_epoch": "2025-12-10T12:48:08.872128",
        "meta_mean_motion": 14.92251024,
        "meta_eccentricity": 0.0012453,
        "meta_inclination": 97.7383,
        "meta_ra_of_asc_node": 271.7738,
        "meta_arg_of_pericenter": 265.4546,
        "meta_mean_anomaly": 94.5251,
        "meta_ephemeris_type": 0,
        "meta_classification_type": "U",
        "meta_norad_cat_id": 66656,
        "meta_element_set_no": 999,
        "meta_rev_at_epoch": 207,
        "meta_bstar": 0.00048020439,
        "meta_mean_motion_dot": 4.85e-05,
        "meta_mean_motion_ddot": 0,
        "tle_line1": "1 66656U 25274G   25344.53343602  .00004850  00000+0  48020-3 0  9996",
        "tle_line2": "2 66656  97.7383 271.7738 0012453 265.4546  94.5251 14.92251024  2075"
      },
      "geometry": {
        "type": "Point",
        "coordinates": [
          -87.3528441856255,
          -3.9996393822829033
        ]
      }
    },
    {
      "type": "Feature",
      "properties": {
        "norad_id": 66657,
        "name": "SPIRONE",
        "group": "last-30-days",
        "lat": 5.03427064573369,
        "lon": -88.58041871030528,
        "alt_km": 591.6455324290891,
        "timestamp": "2025-12-10T20:49:51.346050+00:00",
        "meta_object_name": "SPIRONE",
        "meta_object_id": "2025-274H",
        "meta_epoch": "2025-12-10T12:45:45.708192",
        "meta_mean_motion": 14.92430455,
        "meta_eccentricity": 0.00108957,
        "meta_inclination": 97.7383,
        "meta_ra_of_asc_node": 271.7756,
        "meta_arg_of_pericenter": 284.3298,
        "meta_mean_anomaly": 75.6711,
        "meta_ephemeris_type": 0,
        "meta_classification_type": "U",
        "meta_norad_cat_id": 66657,
        "meta_element_set_no": 999,
        "meta_rev_at_epoch": 207,
        "meta_bstar": 0.00047411303,
        "meta_mean_motion_dot": 4.808e-05,
        "meta_mean_motion_ddot": 0,
        "tle_line1": "1 66657U 25274H   25344.53177903  .00004808  00000+0  47411-3 0  9992",
        "tle_line2": "2 66657  97.7383 271.7756 0010895 284.3298  75.6711 14.92430455  2076"
      },
      "geometry": {
        "type": "Point",
        "coordinates": [
          -88.58041871030528,
          5.03427064573369
        ]
      }
    }
  ]
}